STARLINK-34371          
1 64756U 25147B   26171.14499427  .00031890  00000+0  10340-2 0  9994
2 64756  53.1601 126.4679 0001452  89.7260 270.3908 15.31732531 54396
STARLINK-34401          
1 64757U 25147C   26171.18780567  .00013684  00000+0  41517-3 0  9999
2 64757  53.1596 125.3162 0001236  90.2425 269.8719 15.34417037 54392
STARLINK-34593          
1 64758U 25147D   26170.17710159  .00023543  00000+0  70574-3 0  9998
2 64758  53.1588 129.6769 0001242  95.2596 264.8548 15.34399531 54310
STARLINK-34598          
1 64759U 25147E   26171.27608240  .00034213  00000+0  10183-2 0  9993
2 64759  53.1590 125.1517 0000936  78.1715 281.9392 15.34425754 54424
STARLINK-34235          
1 64760U 25147F   26170.88737336  .00031592  00000+0  94202-3 0  9992
2 64760  53.1591 126.9974 0001148  90.0275 270.0859 15.34405833 54459
STARLINK-34635          
1 64761U 25147G   26170.87685287  .00023039  00000+0  69078-3 0  9999
2 64761  53.1594 126.9303 0001681 102.6660 257.4531 15.34406410 54413
STARLINK-34638          
1 64762U 25147H   26171.16676322  .00022433  00000+0  67269-3 0  9990
2 64762  53.1584 125.1854 0001838  91.1561 268.9652 15.34418045 54464
STARLINK-34534          
1 64763U 25147J   26171.19200947  .00020782  00000+0  62427-3 0  9996
2 64763  53.1585 125.3420 0001001  82.7735 277.3382 15.34411511 54463
STARLINK-34261          
1 64764U 25147K   26170.57422824  .00014863  00000+0  45014-3 0  9994
2 64764  53.1585 127.8839 0001231  93.8033 266.3111 15.34401117 54418
STARLINK-34566          
1 64765U 25147L   26171.24241429  .00018789  00000+0  56551-3 0  9999
2 64765  53.1581 124.9446 0001021 110.0606 250.0507 15.34418505 54476
STARLINK-34645          
1 64766U 25147M   26170.10245416  .00011020  00000+0  38361-3 0  9994
2 64766  53.1598 132.0417 0001377  96.9899 263.1258 15.30203333 54276
STARLINK-34639          
1 64767U 25147N   26171.24872788  .00022445  00000+0  67307-3 0  9994
2 64767  53.1586 124.9795 0001097 102.7885 257.3240 15.34417837 54426
STARLINK-34609          
1 64768U 25147P   26170.59129527  .00018156  00000+0  62356-3 0  9991
2 64768  53.1588 119.4668 0001575 100.9954 259.1224 15.30203490 54498
STARLINK-34246          
1 64769U 25147Q   26171.17097020  .00021377  00000+0  64156-3 0  9998
2 64769  53.1584 125.2098 0002279  88.8822 271.2441 15.34421221 54468
STARLINK-34618          
1 64770U 25147R   26170.17499739  .00019348  00000+0  58236-3 0  9999
2 64770  53.1587 129.6627 0001343  96.4336 263.6820 15.34395223 54249
STARLINK-34541          
1 64771U 25147S   26171.16886753  .00019158  00000+0  57645-3 0  9998
2 64771  53.1592 125.1960 0001817  87.8052 272.3159 15.34414001 54396
STARLINK-34652          
1 64772U 25147T   26171.17517809  .00017621  00000+0  53102-3 0  9990
2 64772  53.1595 125.2321 0002220  84.1517 275.9738 15.34422696 54466
STARLINK-34612          
1 64773U 25147U   26171.29282504  .00014113  00000+0  42793-3 0  9992
2 64773  53.1577 124.5480 0001186  98.7386 261.3751 15.34408459 54487
STARLINK-34621          
1 64774U 25147V   26170.61864087  .00014503  00000+0  50082-3 0  9993
2 64774  53.1601 129.5717 0001427  89.5638 270.5526 15.30201698 54282
STARLINK-34657          
1 64775U 25147W   26171.25083523  .00022396  00000+0  67193-3 0  9993
2 64775  53.1581 124.9956 0001119  88.3329 271.7802 15.34402477 54479
STARLINK-34637          
1 64776U 25147X   26171.19831995  .00016826  00000+0  50812-3 0  9992
2 64776  53.1599 125.3743 0001046 116.9882 243.1228 15.34391934 54390
STARLINK-34547          
1 64777U 25147Y   26171.28861889  .00036508  00000+0  10858-2 0  9992
2 64777  53.1592 124.5192 0001830  70.1846 289.9354 15.34417078 54425
STARLINK-34537          
1 64778U 25147Z   26170.54226000  .00008451  00000+0  29702-3 0  9996
2 64778  53.1597 106.7746 0001682  70.1118 290.0064 15.30210563 54691
STARLINK-34585          
1 64779U 25147AA  26171.19621650  .00021719  00000+0  65180-3 0  9991
2 64779  53.1606 125.3629 0001174  88.3656 271.7482 15.34412671 54412
STARLINK-34491          
1 64780U 25147AB  26171.15624126  .00031150  00000+0  92844-3 0  9997
2 64780  53.1585 125.1125 0001294 103.4913 256.6234 15.34427100 54462
STARLINK-34582          
1 64781U 25147AC  26171.28020005  .00022177  00000+0  66525-3 0  9994
2 64781  53.1592 124.4623 0001067 102.1190 257.9933 15.34414080 54415
STARLINK-34482          
1 64782U 25147AD  26171.18990488  .00020067  00000+0  60334-3 0  9993
2 64782  53.1590 125.3220 0001354  92.8087 267.3071 15.34406608 54501
DROR 1                  
1 64784U 25148A   26171.24859016 -.00000039  00000+0  00000+0 0  9992
2 64784   0.0434  72.4195 0002634 318.5988 322.9231  1.00271283  3321
STARLINK-34629          
1 64790U 25150A   26171.19298743  .00002613  00000+0  22668-3 0  9997
2 64790  69.9990 235.8963 0003767 267.4966  92.5762 14.98335389 51874
STARLINK-34697          
1 64791U 25150B   26171.19699580  .00002574  00000+0  22343-3 0  9998
2 64791  69.9996 235.9044 0003862 268.3852  91.6865 14.98335794 51876
