OBJECT_NAME,OBJECT_ID,EPOCH,MEAN_MOTION,ECCENTRICITY,INCLINATION,RA_OF_ASC_NODE,ARG_OF_PERICENTER,MEAN_ANOMALY,EPHEMERIS_TYPE,CLASSIFICATION_TYPE,NORAD_CAT_ID,ELEMENT_SET_NO,REV_AT_EPOCH,BSTAR,MEAN_MOTION_DOT,MEAN_MOTION_DDOT
STARLINK-34371,2025-147B,2026-06-20T03:28:47.504928,15.31732531,.00014523,53.1601,126.4679,89.7260,270.3908,0,U,64756,999,5439,.10339574E-2,.3189E-3,0
STARLINK-34401,2025-147C,2026-06-20T04:30:26.409888,15.34417037,.00012369,53.1596,125.3162,90.2425,269.8719,0,U,64757,999,5439,.41516595E-3,.13684E-3,0
STARLINK-34593,2025-147D,2026-06-19T04:15:01.577376,15.34399531,.00012421,53.1588,129.6769,95.2596,264.8548,0,U,64758,999,5431,.70574162E-3,.23543E-3,0
STARLINK-34598,2025-147E,2026-06-20T06:37:33.519360,15.34425754,.00009366,53.1590,125.1517,78.1715,281.9392,0,U,64759,999,5442,.10182847E-2,.34213E-3,0
STARLINK-34235,2025-147F,2026-06-19T21:17:49.058304,15.34405833,.00011485,53.1591,126.9974,90.0275,270.0859,0,U,64760,999,5445,.9420241E-3,.31592E-3,0
STARLINK-34635,2025-147G,2026-06-19T21:02:40.087968,15.34406410,.00016812,53.1594,126.9303,102.6660,257.4531,0,U,64761,999,5441,.6907801E-3,.23039E-3,0
STARLINK-34638,2025-147H,2026-06-20T04:00:08.342208,15.34418045,.00018389,53.1584,125.1854,91.1561,268.9652,0,U,64762,999,5446,.67268952E-3,.22433E-3,0
STARLINK-34534,2025-147J,2026-06-20T04:36:29.618208,15.34411511,.00010015,53.1585,125.3420,82.7735,277.3382,0,U,64763,999,5446,.62427368E-3,.20782E-3,0
STARLINK-34261,2025-147K,2026-06-19T13:46:53.319936,15.34401117,.00012318,53.1585,127.8839,93.8033,266.3111,0,U,64764,999,5441,.45014192E-3,.14863E-3,0
STARLINK-34566,2025-147L,2026-06-20T05:49:04.594656,15.34418505,.00010218,53.1581,124.9446,110.0606,250.0507,0,U,64765,999,5447,.56550716E-3,.18789E-3,0
STARLINK-34645,2025-147M,2026-06-19T02:27:32.039424,15.30203333,.00013774,53.1598,132.0417,96.9899,263.1258,0,U,64766,999,5427,.38361271E-3,.1102E-3,0
STARLINK-34639,2025-147N,2026-06-20T05:58:10.088832,15.34417837,.0001097,53.1586,124.9795,102.7885,257.3240,0,U,64767,999,5442,.67306509E-3,.22445E-3,0
STARLINK-34609,2025-147P,2026-06-19T14:11:27.911328,15.30203490,.00015754,53.1588,119.4668,100.9954,259.1224,0,U,64768,999,5449,.62356219E-3,.18156E-3,0
STARLINK-34246,2025-147Q,2026-06-20T04:06:11.825280,15.34421221,.00022799,53.1584,125.2098,88.8822,271.2441,0,U,64769,999,5446,.6415616E-3,.21377E-3,0
STARLINK-34618,2025-147R,2026-06-19T04:11:59.774496,15.34395223,.00013439,53.1587,129.6627,96.4336,263.6820,0,U,64770,999,5424,.58235914E-3,.19348E-3,0
STARLINK-34541,2025-147S,2026-06-20T04:03:10.154592,15.34414001,.00018172,53.1592,125.1960,87.8052,272.3159,0,U,64771,999,5439,.57644765E-3,.19158E-3,0
STARLINK-34652,2025-147T,2026-06-20T04:12:15.386976,15.34422696,.00022205,53.1595,125.2321,84.1517,275.9738,0,U,64772,999,5446,.53102406E-3,.17621E-3,0
STARLINK-34612,2025-147U,2026-06-20T07:01:40.083456,15.34408459,.00011867,53.1577,124.5480,98.7386,261.3751,0,U,64773,999,5448,.42792677E-3,.14113E-3,0
STARLINK-34621,2025-147V,2026-06-19T14:50:50.571168,15.30201698,.0001427,53.1601,129.5717,89.5638,270.5526,0,U,64774,999,5428,.50081883E-3,.14503E-3,0
STARLINK-34657,2025-147W,2026-06-20T06:01:12.163872,15.34402477,.00011192,53.1581,124.9956,88.3329,271.7802,0,U,64775,999,5447,.67193393E-3,.22396E-3,0
STARLINK-34637,2025-147X,2026-06-20T04:45:34.843680,15.34391934,.00010466,53.1599,125.3743,116.9882,243.1228,0,U,64776,999,5439,.50811869E-3,.16826E-3,0
STARLINK-34547,2025-147Y,2026-06-20T06:55:36.672096,15.34417078,.00018303,53.1592,124.5192,70.1846,289.9354,0,U,64777,999,5442,.10858051E-2,.36508E-3,0
STARLINK-34537,2025-147Z,2026-06-19T13:00:51.264000,15.30210563,.00016823,53.1597,106.7746,70.1118,290.0064,0,U,64778,999,5469,.2970236E-3,.8451E-4,0
STARLINK-34585,2025-147AA,2026-06-20T04:42:33.105600,15.34412671,.00011742,53.1606,125.3629,88.3656,271.7482,0,U,64779,999,5441,.65180347E-3,.21719E-3,0
STARLINK-34491,2025-147AB,2026-06-20T03:44:59.244864,15.34427100,.00012942,53.1585,125.1125,103.4913,256.6234,0,U,64780,999,5446,.92844375E-3,.3115E-3,0
STARLINK-34582,2025-147AC,2026-06-20T06:43:29.284320,15.34414080,.00010674,53.1592,124.4623,102.1190,257.9933,0,U,64781,999,5441,.66524882E-3,.22177E-3,0
STARLINK-34482,2025-147AD,2026-06-20T04:33:27.781632,15.34406608,.00013546,53.1590,125.3220,92.8087,267.3071,0,U,64782,999,5450,.60333969E-3,.20067E-3,0
DROR 1,2025-148A,2026-06-20T05:57:58.189824,1.00271283,.00026341,0.0434,72.4195,318.5988,322.9231,0,U,64784,999,332,0,-.39E-6,0
STARLINK-34629,2025-150A,2026-06-20T04:37:54.113952,14.98335389,.00037671,69.9990,235.8963,267.4966,92.5762,0,U,64790,999,5187,.22667909E-3,.2613E-4,0
STARLINK-34697,2025-150B,2026-06-20T04:43:40.437120,14.98335794,.00038622,69.9996,235.9044,268.3852,91.6865,0,U,64791,999,5187,.22343443E-3,.2574E-4,0
